<?xml version="1.0" encoding="UTF-8"?>
<kml xmlns="http://www.opengis.net/kml/2.2" xmlns:gx="http://www.google.com/kml/ext/2.2">
    <Document id="2027">
        <Style id="2032">
            <LineStyle id="2034">
                <color>ff0000ff</color>
                <colorMode>normal</colorMode>
                <width>5</width>
            </LineStyle>
            <PolyStyle id="2033">
                <color>00000000</color>
                <colorMode>normal</colorMode>
                <fill>1</fill>
                <outline>1</outline>
            </PolyStyle>
        </Style>
        <description>Watershed boundary for the outlet at lat, lng = 40.408, 36.903, 
        based on data from merit. Created on Tue Jun  2 20:43:44 2026 with the web app at https://www.mghydro.com/watersheds</description>
        <Placemark id="2029">
            <styleUrl>#2032</styleUrl>
            <Polygon id="2028">
                <outerBoundaryIs>
                    <LinearRing id="2030">
                        <coordinates>36.8862,40.3938,0.0 36.8879,40.3963,0.0 36.8954,40.3963,0.0 36.8962,40.3979,0.0 36.9029,40.4013,0.0 36.9029,40.4038,0.0 36.9046,40.4054,0.0 36.9029,40.4063,0.0 36.9021,40.4121,0.0 36.9037,40.4129,0.0 36.9046,40.4163,0.0 36.9162,40.4179,0.0 36.9187,40.4213,0.0 36.9271,40.4196,0.0 36.9337,40.4263,0.0 36.9354,40.4271,0.0 36.9387,40.4263,0.0 36.9412,40.4288,0.0 36.9437,40.4279,0.0 36.9479,40.4288,0.0 36.9504,40.4279,0.0 36.9512,40.4263,0.0 36.9546,40.4263,0.0 36.9587,40.4271,0.0 36.9621,40.4288,0.0 36.9637,40.4313,0.0 36.9654,40.4313,0.0 36.9671,40.4279,0.0 36.9729,40.4263,0.0 36.9737,40.4246,0.0 36.9787,40.4246,0.0 36.9829,40.4263,0.0 36.9887,40.4213,0.0 36.9929,40.4213,0.0 36.9937,40.4196,0.0 37.0021,40.4213,0.0 37.0054,40.4246,0.0 37.0087,40.4246,0.0 37.0121,40.4279,0.0 37.0171,40.4288,0.0 37.0196,40.4271,0.0 37.0204,40.4238,0.0 37.0229,40.4213,0.0 37.0262,40.4196,0.0 37.0271,40.4171,0.0 37.0362,40.4154,0.0 37.0387,40.4113,0.0 37.0429,40.4113,0.0 37.0446,40.4079,0.0 37.0437,40.4021,0.0 37.0462,40.4021,0.0 37.0462,40.4004,0.0 37.0554,40.4038,0.0 37.0612,40.4029,0.0 37.0654,40.4071,0.0 37.0704,40.4038,0.0 37.0754,40.4029,0.0 37.0771,40.4004,0.0 37.0796,40.4029,0.0 37.0871,40.4029,0.0 37.0896,40.4013,0.0 37.0929,40.3946,0.0 37.1037,40.3946,0.0 37.1062,40.3913,0.0 37.1087,40.3913,0.0 37.1104,40.3888,0.0 37.1221,40.3888,0.0 37.1262,40.3854,0.0 37.1329,40.3871,0.0 37.1337,40.3888,0.0 37.1487,40.3871,0.0 37.1504,40.3879,0.0 37.1512,40.3904,0.0 37.1529,40.3904,0.0 37.1554,40.3888,0.0 37.1562,40.3854,0.0 37.1637,40.3813,0.0 37.1646,40.3788,0.0 37.1662,40.3788,0.0 37.1696,40.3738,0.0 37.1729,40.3721,0.0 37.1762,40.3729,0.0 37.1771,40.3713,0.0 37.1787,40.3713,0.0 37.1787,40.3688,0.0 37.1804,40.3688,0.0 37.1821,40.3663,0.0 37.1921,40.3629,0.0 37.1937,40.3638,0.0 37.2029,40.3629,0.0 37.2054,40.3663,0.0 37.2162,40.3654,0.0 37.2171,40.3671,0.0 37.2271,40.3679,0.0 37.2279,40.3663,0.0 37.2312,40.3671,0.0 37.2321,40.3621,0.0 37.2346,40.3596,0.0 37.2454,40.3604,0.0 37.2487,40.3638,0.0 37.2712,40.3613,0.0 37.2729,40.3521,0.0 37.2721,40.3504,0.0 37.2762,40.3504,0.0 37.2796,40.3463,0.0 37.2862,40.3479,0.0 37.2904,40.3471,0.0 37.2946,40.3429,0.0 37.2946,40.3371,0.0 37.2987,40.3363,0.0 37.3046,40.3313,0.0 37.3071,40.3313,0.0 37.3079,40.3288,0.0 37.3154,40.3296,0.0 37.3171,40.3279,0.0 37.3204,40.3279,0.0 37.3212,40.3254,0.0 37.3312,40.3246,0.0 37.3354,40.3221,0.0 37.3412,40.3221,0.0 37.3421,40.3263,0.0 37.3454,40.3279,0.0 37.3479,40.3329,0.0 37.3496,40.3329,0.0 37.3504,40.3313,0.0 37.3621,40.3329,0.0 37.3662,40.3246,0.0 37.3654,40.3238,0.0 37.3662,40.3179,0.0 37.3696,40.3146,0.0 37.3737,40.3146,0.0 37.3754,40.3113,0.0 37.3787,40.3096,0.0 37.3862,40.3104,0.0 37.3921,40.3088,0.0 37.3937,40.3054,0.0 37.3987,40.3029,0.0 37.4012,40.3029,0.0 37.4079,40.3071,0.0 37.4104,40.3071,0.0 37.4146,40.3046,0.0 37.4196,40.3046,0.0 37.4229,40.3054,0.0 37.4237,40.3079,0.0 37.4279,40.3113,0.0 37.4362,40.3121,0.0 37.4371,40.3088,0.0 37.4404,40.3054,0.0 37.4504,40.3046,0.0 37.4562,40.3054,0.0 37.4571,40.3029,0.0 37.4596,40.3013,0.0 37.4771,40.3021,0.0 37.4796,40.3038,0.0 37.4837,40.3038,0.0 37.4904,40.3021,0.0 37.4921,40.3004,0.0 37.4954,40.3004,0.0 37.4971,40.2979,0.0 37.5037,40.2971,0.0 37.5054,40.2988,0.0 37.5146,40.2988,0.0 37.5212,40.2963,0.0 37.5312,40.2963,0.0 37.5312,40.2946,0.0 37.5337,40.2938,0.0 37.5387,40.2946,0.0 37.5437,40.2921,0.0 37.5446,40.2879,0.0 37.5512,40.2879,0.0 37.5529,40.2863,0.0 37.5554,40.2863,0.0 37.5571,40.2829,0.0 37.5596,40.2829,0.0 37.5612,40.2804,0.0 37.5646,40.2804,0.0 37.5654,40.2788,0.0 37.5687,40.2788,0.0 37.5696,40.2771,0.0 37.5754,40.2763,0.0 37.5754,40.2713,0.0 37.5829,40.2713,0.0 37.5837,40.2729,0.0 37.5871,40.2729,0.0 37.5879,40.2713,0.0 37.5937,40.2704,0.0 37.5962,40.2679,0.0 37.5971,40.2638,0.0 37.6012,40.2638,0.0 37.6046,40.2596,0.0 37.6096,40.2604,0.0 37.6112,40.2579,0.0 37.6179,40.2563,0.0 37.6187,40.2529,0.0 37.6279,40.2538,0.0 37.6296,40.2521,0.0 37.6296,40.2488,0.0 37.6329,40.2463,0.0 37.6329,40.2421,0.0 37.6312,40.2413,0.0 37.6321,40.2396,0.0 37.6454,40.2404,0.0 37.6471,40.2421,0.0 37.6504,40.2421,0.0 37.6512,40.2438,0.0 37.6562,40.2438,0.0 37.6587,40.2471,0.0 37.6621,40.2471,0.0 37.6629,40.2488,0.0 37.6654,40.2479,0.0 37.6754,40.2488,0.0 37.6896,40.2521,0.0 37.6987,40.2388,0.0 37.6979,40.2354,0.0 37.6987,40.2313,0.0 37.6946,40.2304,0.0 37.6946,40.2279,0.0 37.6896,40.2238,0.0 37.6904,40.2221,0.0 37.6929,40.2213,0.0 37.6962,40.2221,0.0 37.7004,40.2179,0.0 37.7021,40.2179,0.0 37.7037,40.2146,0.0 37.7062,40.2138,0.0 37.7071,40.2121,0.0 37.7146,40.2129,0.0 37.7154,40.2154,0.0 37.7171,40.2163,0.0 37.7179,40.2121,0.0 37.7196,40.2121,0.0 37.7204,40.2104,0.0 37.7254,40.2104,0.0 37.7254,40.2088,0.0 37.7271,40.2088,0.0 37.7279,40.2071,0.0 37.7346,40.2088,0.0 37.7387,40.2046,0.0 37.7429,40.2046,0.0 37.7429,40.2029,0.0 37.7496,40.1963,0.0 37.7512,40.1963,0.0 37.7529,40.1929,0.0 37.7554,40.1929,0.0 37.7579,40.1896,0.0 37.7621,40.1888,0.0 37.7629,40.1863,0.0 37.7654,40.1871,0.0 37.7687,40.1854,0.0 37.7729,40.1854,0.0 37.7754,40.1829,0.0 37.7821,40.1829,0.0 37.7854,40.1846,0.0 37.7862,40.1879,0.0 37.7887,40.1879,0.0 37.7921,40.1904,0.0 37.7946,40.1896,0.0 37.7971,40.1846,0.0 37.8021,40.1813,0.0 37.8012,40.1738,0.0 37.7996,40.1729,0.0 37.7996,40.1704,0.0 37.7971,40.1671,0.0 37.8029,40.1654,0.0 37.8029,40.1638,0.0 37.8046,40.1629,0.0 37.8037,40.1613,0.0 37.8046,40.1588,0.0 37.8162,40.1579,0.0 37.8179,40.1613,0.0 37.8212,40.1604,0.0 37.8254,40.1654,0.0 37.8304,40.1638,0.0 37.8329,40.1654,0.0 37.8362,40.1654,0.0 37.8362,40.1671,0.0 37.8387,40.1696,0.0 37.8404,40.1696,0.0 37.8454,40.1679,0.0 37.8529,40.1604,0.0 37.8629,40.1604,0.0 37.8646,40.1579,0.0 37.8696,40.1554,0.0 37.8771,40.1546,0.0 37.8779,40.1521,0.0 37.8854,40.1454,0.0 37.8846,40.1446,0.0 37.8854,40.1338,0.0 37.8871,40.1338,0.0 37.8946,40.1263,0.0 37.8929,40.1213,0.0 37.8946,40.1204,0.0 37.9012,40.1229,0.0 37.9062,40.1221,0.0 37.9054,40.1179,0.0 37.9087,40.1163,0.0 37.9104,40.1121,0.0 37.9129,40.1121,0.0 37.9146,40.1054,0.0 37.9162,40.1054,0.0 37.9196,40.1013,0.0 37.9221,40.1013,0.0 37.9237,40.0996,0.0 37.9246,40.0954,0.0 37.9212,40.0929,0.0 37.9204,40.0896,0.0 37.9187,40.0888,0.0 37.9196,40.0854,0.0 37.9229,40.0821,0.0 37.9171,40.0829,0.0 37.9162,40.0804,0.0 37.9129,40.0788,0.0 37.9087,40.0804,0.0 37.9079,40.0788,0.0 37.9037,40.0771,0.0 37.9046,40.0713,0.0 37.9079,40.0688,0.0 37.9079,40.0663,0.0 37.9096,40.0646,0.0 37.9121,40.0646,0.0 37.9162,40.0604,0.0 37.9154,40.0588,0.0 37.9179,40.0571,0.0 37.9187,40.0521,0.0 37.9171,40.0496,0.0 37.9104,40.0488,0.0 37.9079,40.0479,0.0 37.9071,40.0463,0.0 37.9046,40.0471,0.0 37.9029,40.0446,0.0 37.8996,40.0429,0.0 37.8954,40.0429,0.0 37.8879,40.0454,0.0 37.8862,40.0454,0.0 37.8846,40.0429,0.0 37.8821,40.0429,0.0 37.8812,40.0446,0.0 37.8762,40.0446,0.0 37.8754,40.0429,0.0 37.8721,40.0429,0.0 37.8704,40.0446,0.0 37.8687,40.0429,0.0 37.8662,40.0463,0.0 37.8612,40.0488,0.0 37.8571,40.0496,0.0 37.8554,40.0471,0.0 37.8504,40.0479,0.0 37.8496,40.0496,0.0 37.8512,40.0571,0.0 37.8471,40.0579,0.0 37.8462,40.0596,0.0 37.8421,40.0596,0.0 37.8404,40.0621,0.0 37.8379,40.0629,0.0 37.8312,40.0629,0.0 37.8304,40.0604,0.0 37.8212,40.0596,0.0 37.8187,40.0571,0.0 37.8146,40.0563,0.0 37.8137,40.0546,0.0 37.8096,40.0554,0.0 37.8079,40.0521,0.0 37.8021,40.0529,0.0 37.8021,40.0546,0.0 37.7987,40.0554,0.0 37.7979,40.0579,0.0 37.7954,40.0579,0.0 37.7946,40.0596,0.0 37.7896,40.0596,0.0 37.7887,40.0513,0.0 37.7904,40.0479,0.0 37.7887,40.0463,0.0 37.7887,40.0404,0.0 37.7837,40.0413,0.0 37.7787,40.0354,0.0 37.7737,40.0363,0.0 37.7721,40.0254,0.0 37.7704,40.0246,0.0 37.7704,40.0221,0.0 37.7621,40.0229,0.0 37.7604,40.0246,0.0 37.7579,40.0238,0.0 37.7537,40.0288,0.0 37.7446,40.0304,0.0 37.7437,40.0329,0.0 37.7396,40.0354,0.0 37.7396,40.0379,0.0 37.7354,40.0404,0.0 37.7271,40.0346,0.0 37.7196,40.0338,0.0 37.7187,40.0313,0.0 37.7162,40.0304,0.0 37.7137,40.0271,0.0 37.7104,40.0279,0.0 37.7054,40.0329,0.0 37.6996,40.0329,0.0 37.6979,40.0371,0.0 37.6946,40.0379,0.0 37.6896,40.0379,0.0 37.6837,40.0346,0.0 37.6796,40.0379,0.0 37.6762,40.0379,0.0 37.6746,40.0363,0.0 37.6721,40.0363,0.0 37.6712,40.0346,0.0 37.6654,40.0338,0.0 37.6621,40.0354,0.0 37.6529,40.0346,0.0 37.6487,40.0371,0.0 37.6487,40.0388,0.0 37.6437,40.0404,0.0 37.6437,40.0454,0.0 37.6329,40.0454,0.0 37.6304,40.0429,0.0 37.6287,40.0429,0.0 37.6279,40.0463,0.0 37.6237,40.0504,0.0 37.6212,40.0513,0.0 37.6212,40.0546,0.0 37.6162,40.0563,0.0 37.6071,40.0554,0.0 37.6062,40.0538,0.0 37.6037,40.0529,0.0 37.6046,40.0504,0.0 37.6029,40.0488,0.0 37.5954,40.0471,0.0 37.5912,40.0429,0.0 37.5912,40.0413,0.0 37.5812,40.0404,0.0 37.5804,40.0388,0.0 37.5787,40.0388,0.0 37.5754,40.0329,0.0 37.5704,40.0329,0.0 37.5671,40.0354,0.0 37.5646,40.0346,0.0 37.5604,40.0354,0.0 37.5604,40.0371,0.0 37.5529,40.0404,0.0 37.5471,40.0404,0.0 37.5446,40.0429,0.0 37.5446,40.0446,0.0 37.5429,40.0446,0.0 37.5437,40.0488,0.0 37.5404,40.0529,0.0 37.5412,40.0613,0.0 37.5362,40.0629,0.0 37.5362,40.0688,0.0 37.5254,40.0696,0.0 37.5246,40.0713,0.0 37.5212,40.0721,0.0 37.5187,40.0754,0.0 37.5154,40.0763,0.0 37.5137,40.0779,0.0 37.5129,40.0821,0.0 37.5112,40.0821,0.0 37.5071,40.0863,0.0 37.5062,40.0896,0.0 37.5029,40.0921,0.0 37.5029,40.0954,0.0 37.4979,40.0971,0.0 37.4954,40.0996,0.0 37.4854,40.0971,0.0 37.4771,40.0979,0.0 37.4671,40.0921,0.0 37.4587,40.0929,0.0 37.4571,40.0954,0.0 37.4412,40.0946,0.0 37.4379,40.0954,0.0 37.4371,40.0971,0.0 37.4312,40.0971,0.0 37.4304,40.0988,0.0 37.4271,40.0996,0.0 37.4204,40.0988,0.0 37.4121,40.0954,0.0 37.4037,40.0971,0.0 37.3971,40.0913,0.0 37.3921,40.0904,0.0 37.3887,40.0846,0.0 37.3754,40.0838,0.0 37.3687,40.0888,0.0 37.3621,40.0888,0.0 37.3604,40.0904,0.0 37.3579,40.0871,0.0 37.3537,40.0863,0.0 37.3521,40.0838,0.0 37.3487,40.0846,0.0 37.3462,40.0821,0.0 37.3454,40.0788,0.0 37.3437,40.0788,0.0 37.3437,40.0771,0.0 37.3371,40.0763,0.0 37.3362,40.0779,0.0 37.3296,40.0813,0.0 37.3271,40.0813,0.0 37.3271,40.0838,0.0 37.3221,40.0838,0.0 37.3187,40.0821,0.0 37.3187,40.0838,0.0 37.3162,40.0854,0.0 37.3054,40.0863,0.0 37.3037,40.0888,0.0 37.3004,40.0904,0.0 37.2946,40.0904,0.0 37.2929,40.0888,0.0 37.2804,40.0888,0.0 37.2662,40.0913,0.0 37.2612,40.0896,0.0 37.2596,40.0913,0.0 37.2554,40.0904,0.0 37.2529,40.0938,0.0 37.2479,40.0954,0.0 37.2446,40.0946,0.0 37.2329,40.0954,0.0 37.2321,40.0979,0.0 37.2329,40.1004,0.0 37.2312,40.1021,0.0 37.2204,40.1054,0.0 37.2204,40.1079,0.0 37.2221,40.1088,0.0 37.2212,40.1104,0.0 37.2037,40.1113,0.0 37.2029,40.1096,0.0 37.1954,40.1088,0.0 37.1904,40.1029,0.0 37.1837,40.1029,0.0 37.1787,40.1013,0.0 37.1762,40.1029,0.0 37.1637,40.1021,0.0 37.1637,40.1038,0.0 37.1621,40.1046,0.0 37.1579,40.1029,0.0 37.1479,40.1029,0.0 37.1446,40.1054,0.0 37.1421,40.1038,0.0 37.1379,40.1038,0.0 37.1362,40.1054,0.0 37.1312,40.1063,0.0 37.1279,40.1054,0.0 37.1221,40.1071,0.0 37.1204,40.1088,0.0 37.1146,40.1096,0.0 37.1104,40.1138,0.0 37.0946,40.1163,0.0 37.0962,40.1296,0.0 37.0929,40.1321,0.0 37.0921,40.1354,0.0 37.0896,40.1379,0.0 37.0829,40.1413,0.0 37.0821,40.1471,0.0 37.0796,40.1479,0.0 37.0804,40.1546,0.0 37.0787,40.1554,0.0 37.0796,40.1629,0.0 37.0812,40.1646,0.0 37.0837,40.1646,0.0 37.0846,40.1696,0.0 37.0862,40.1704,0.0 37.0837,40.1721,0.0 37.0796,40.1713,0.0 37.0737,40.1779,0.0 37.0679,40.1796,0.0 37.0654,40.1788,0.0 37.0646,40.1771,0.0 37.0621,40.1771,0.0 37.0596,40.1746,0.0 37.0554,40.1746,0.0 37.0512,40.1721,0.0 37.0454,40.1721,0.0 37.0429,40.1704,0.0 37.0354,40.1721,0.0 37.0246,40.1721,0.0 37.0229,40.1696,0.0 37.0154,40.1654,0.0 37.0029,40.1654,0.0 36.9954,40.1671,0.0 36.9912,40.1646,0.0 36.9829,40.1646,0.0 36.9779,40.1671,0.0 36.9771,40.1654,0.0 36.9721,40.1654,0.0 36.9687,40.1638,0.0 36.9671,40.1671,0.0 36.9621,40.1671,0.0 36.9596,40.1738,0.0 36.9537,40.1746,0.0 36.9512,40.1771,0.0 36.9496,40.1771,0.0 36.9504,40.1796,0.0 36.9546,40.1829,0.0 36.9546,40.1863,0.0 36.9421,40.1888,0.0 36.9421,40.1913,0.0 36.9379,40.1929,0.0 36.9371,40.1954,0.0 36.9296,40.1979,0.0 36.9279,40.2029,0.0 36.9254,40.2029,0.0 36.9246,40.2013,0.0 36.9204,40.2013,0.0 36.9179,40.1988,0.0 36.9179,40.1954,0.0 36.9146,40.1938,0.0 36.8912,40.1954,0.0 36.8896,40.1971,0.0 36.8846,40.1971,0.0 36.8837,40.1988,0.0 36.8796,40.1996,0.0 36.8787,40.2004,0.0 36.8796,40.2071,0.0 36.8762,40.2071,0.0 36.8754,40.2088,0.0 36.8721,40.2088,0.0 36.8687,40.2113,0.0 36.8646,40.2104,0.0 36.8604,40.2146,0.0 36.8471,40.2138,0.0 36.8462,40.2154,0.0 36.8412,40.2163,0.0 36.8387,40.2196,0.0 36.8287,40.2188,0.0 36.8237,40.2163,0.0 36.8212,40.2171,0.0 36.8196,40.2146,0.0 36.8137,40.2138,0.0 36.8121,40.2121,0.0 36.8037,40.2129,0.0 36.8012,40.2104,0.0 36.7929,40.2113,0.0 36.7896,40.2079,0.0 36.7829,40.2079,0.0 36.7812,40.2063,0.0 36.7762,40.2071,0.0 36.7637,40.2063,0.0 36.7596,40.2079,0.0 36.7571,40.2063,0.0 36.7512,40.2063,0.0 36.7487,40.2079,0.0 36.7379,40.2088,0.0 36.7362,40.2104,0.0 36.7262,40.2088,0.0 36.7254,40.2071,0.0 36.7154,40.2096,0.0 36.7096,40.2071,0.0 36.7046,40.2079,0.0 36.7037,40.2104,0.0 36.7021,40.2104,0.0 36.7004,40.2129,0.0 36.6987,40.2129,0.0 36.6987,40.2146,0.0 36.6962,40.2154,0.0 36.6921,40.2154,0.0 36.6921,40.2138,0.0 36.6896,40.2129,0.0 36.6787,40.2121,0.0 36.6721,40.2188,0.0 36.6629,40.2179,0.0 36.6587,40.2196,0.0 36.6537,40.2246,0.0 36.6537,40.2263,0.0 36.6521,40.2271,0.0 36.6537,40.2296,0.0 36.6546,40.2404,0.0 36.6537,40.2521,0.0 36.6512,40.2521,0.0 36.6487,40.2554,0.0 36.6429,40.2538,0.0 36.6396,40.2571,0.0 36.6379,40.2571,0.0 36.6371,40.2604,0.0 36.6321,40.2654,0.0 36.6321,40.2688,0.0 36.6296,40.2696,0.0 36.6279,40.2721,0.0 36.6229,40.2738,0.0 36.6171,40.2796,0.0 36.6187,40.2821,0.0 36.6254,40.2813,0.0 36.6262,40.2829,0.0 36.6287,40.2838,0.0 36.6337,40.2829,0.0 36.6362,40.2854,0.0 36.6412,40.2854,0.0 36.6437,40.2821,0.0 36.6487,40.2813,0.0 36.6587,40.2846,0.0 36.6621,40.2838,0.0 36.6679,40.2871,0.0 36.6687,40.2888,0.0 36.6712,40.2871,0.0 36.6712,40.2888,0.0 36.6746,40.2904,0.0 36.6754,40.2938,0.0 36.6787,40.2938,0.0 36.6804,40.2954,0.0 36.6862,40.2954,0.0 36.6871,40.2988,0.0 36.6929,40.3038,0.0 36.7037,40.3046,0.0 36.7087,40.3071,0.0 36.7221,40.3079,0.0 36.7246,40.3188,0.0 36.7296,40.3196,0.0 36.7329,40.3221,0.0 36.7387,40.3213,0.0 36.7412,40.3221,0.0 36.7421,40.3238,0.0 36.7596,40.3246,0.0 36.7596,40.3271,0.0 36.7621,40.3279,0.0 36.7629,40.3304,0.0 36.7646,40.3304,0.0 36.7679,40.3338,0.0 36.7746,40.3346,0.0 36.7787,40.3388,0.0 36.7879,40.3413,0.0 36.7921,40.3454,0.0 36.8037,40.3446,0.0 36.8029,40.3479,0.0 36.8054,40.3504,0.0 36.8129,40.3529,0.0 36.8146,40.3563,0.0 36.8171,40.3563,0.0 36.8187,40.3588,0.0 36.8237,40.3604,0.0 36.8229,40.3638,0.0 36.8254,40.3688,0.0 36.8262,40.3788,0.0 36.8229,40.3829,0.0 36.8271,40.3863,0.0 36.8254,40.3913,0.0 36.8321,40.3904,0.0 36.8346,40.3929,0.0 36.8371,40.3929,0.0 36.8379,40.3913,0.0 36.8437,40.3921,0.0 36.8496,40.3904,0.0 36.8571,40.3921,0.0 36.8579,40.3904,0.0 36.8612,40.3896,0.0 36.8646,40.3904,0.0 36.8654,40.3921,0.0 36.8729,40.3921,0.0 36.8746,40.3946,0.0 36.8771,40.3946,0.0 36.8787,40.3929,0.0 36.8862,40.3938,0.0</coordinates>
                    </LinearRing>
                </outerBoundaryIs>
            </Polygon>
        </Placemark>
    </Document>
</kml>
